     2.01           GLONASS NAV DATA                        RINEX VERSION / TYPE
CCRINEXG V1.4 UX    CDDIS               14-SEP-20 04:26     PGM / RUN BY / DATE 
IGS BROADCAST EPHEMERIS FILE                                COMMENT             
JPS2RIN v.2.0.168   BASH SCRIPT         20200914  10023     COMMENT             
  2020     9    14    0.000000000000D+00                    CORR TO SYSTEM TIME 
    18                                                      LEAP SECONDS        
                                                            END OF HEADER       
19 20  9 14  7 45  0.0-0.111117027700D-03-0.909494701773D-12 0.270000000000D+05
   -0.132805175781D+03 0.165013313293D+00 0.279396772385D-08 0.000000000000D+00
    0.248994394531D+05 0.776840209961D+00-0.000000000000D+00 0.300000000000D+01
    0.550191308594D+04-0.351045894623D+01 0.000000000000D+00 0.000000000000D+00
20 20  9 14  7 45  0.0-0.421738252044D-03-0.000000000000D+00 0.278400000000D+05
    0.804652734375D+04-0.187726020813D+00 0.465661287308D-08 0.000000000000D+00
    0.122541303711D+05 0.285930824280D+01 0.186264514923D-08 0.200000000000D+01
    0.208875825195D+05-0.160241508484D+01-0.931322574616D-09 0.000000000000D+00
21 20  9 14  7 45  0.0-0.152059830725D-03-0.272848410532D-11 0.279000000000D+05
    0.104484887695D+05-0.321924209595D+00 0.186264514923D-08 0.000000000000D+00
   -0.876233691406D+04 0.294002628326D+01 0.186264514923D-08 0.400000000000D+01
    0.215626586914D+05 0.134707927704D+01-0.931322574616D-09 0.000000000000D+00
22 20  9 14  7 45  0.0-0.728210434318D-04-0.181898940355D-11 0.279000000000D+05
    0.629670263672D+04-0.330789566040D+00-0.931322574616D-09 0.000000000000D+00
   -0.226745468750D+05 0.131526947022D+01 0.931322574616D-09-0.300000000000D+01
    0.971940087891D+04 0.328434467316D+01-0.931322574616D-09 0.000000000000D+00
23 20  9 14  7 45  0.0 0.331859104335D-03 0.181898940355D-11 0.270000000000D+05
   -0.367531396484D+04-0.660705566406D-01-0.372529029846D-08 0.000000000000D+00
   -0.220341103516D+05-0.170115280151D+01-0.931322574616D-09 0.300000000000D+01
   -0.123355053711D+05 0.305993652344D+01-0.000000000000D+00 0.000000000000D+00
24 20  9 14  7 45  0.0 0.132434070110D-04 0.909494701773D-12 0.270000000000D+05
   -0.879403027344D+04 0.200697898865D+00-0.372529029846D-08 0.000000000000D+00
   -0.115005576172D+05-0.287209606171D+01-0.186264514923D-08 0.200000000000D+01
   -0.209946240234D+05 0.148605155945D+01 0.000000000000D+00 0.000000000000D+00
26 20  9 14  7 45  0.0-0.362018123269D-03 0.181898940355D-11 0.270000000000D+05
    0.662831933594D+04-0.496730804443D-01 0.465661287308D-08 0.100000000000D+01
    0.169065429688D+05 0.245955657959D+01 0.931322574616D-09-0.600000000000D+01
    0.179042460938D+05-0.230828952789D+01 0.000000000000D+00 0.000000000000D+00
 4 20  9 14  8 15  0.0 0.545242801309D-04 0.181898940355D-11 0.288300000000D+05
   -0.875760839844D+04-0.279452228546D+01 0.931322574616D-09 0.000000000000D+00
    0.754822802734D+04-0.136764049530D+01 0.000000000000D+00 0.600000000000D+01
    0.227586953125D+05-0.622770309448D+00-0.279396772385D-08 0.000000000000D+00
 5 20  9 14  8 15  0.0 0.575538724661D-04 0.909494701773D-12 0.288300000000D+05
    0.868619482422D+04-0.229382133484D+01 0.465661287308D-08 0.000000000000D+00
    0.144470625000D+05-0.127412986755D+01 0.931322574616D-09 0.100000000000D+01
    0.191589902344D+05 0.199920463562D+01-0.931322574616D-09 0.000000000000D+00
 6 20  9 14  8 15  0.0 0.183753669262D-03 0.000000000000D+00 0.288300000000D+05
    0.223930761719D+05-0.249367713928D+00 0.465661287308D-08 0.000000000000D+00
    0.119820820312D+05-0.276852607727D+00 0.186264514923D-08-0.400000000000D+01
    0.250036865234D+04 0.353731060028D+01 0.186264514923D-08 0.000000000000D+00
 7 20  9 14  8 15  0.0-0.400813296437D-04 0.000000000000D+00 0.290700000000D+05
    0.211165781250D+05 0.176918888092D+01 0.186264514923D-08 0.000000000000D+00
    0.319167871094D+04 0.743320465088D+00 0.186264514923D-08 0.500000000000D+01
   -0.139509072266D+05 0.283750820160D+01 0.372529029846D-08 0.000000000000D+00
10 20  9 14  8 15  0.0-0.621359795332D-04 0.000000000000D+00 0.288300000000D+05
    0.216958164062D+05-0.123507404327D+01 0.000000000000D+00 0.000000000000D+00
   -0.883039501953D+04 0.657174110413D+00 0.186264514923D-08-0.700000000000D+01
   -0.101748852539D+05-0.319781684876D+01 0.279396772385D-08 0.000000000000D+00
11 20  9 14  8 15  0.0-0.375974923372D-04-0.909494701773D-12 0.288300000000D+05
    0.172038017578D+05 0.933053970337D+00 0.931322574616D-09 0.000000000000D+00
   -0.166298779297D+05-0.764832496643D+00 0.279396772385D-08 0.000000000000D+00
    0.878734326172D+04-0.328714942932D+01 0.000000000000D+00 0.000000000000D+00
12 20  9 14  8 15  0.0 0.163667835295D-03 0.363797880709D-11 0.288300000000D+05
    0.341602636719D+04 0.234311103821D+01 0.000000000000D+00 0.000000000000D+00
   -0.142130122070D+05-0.163846397400D+01 0.931322574616D-09-0.100000000000D+01
    0.209426259766D+05-0.149502086639D+01-0.186264514923D-08 0.000000000000D+00
20 20  9 14  8 15  0.0-0.421739183366D-03 0.000000000000D+00 0.288300000000D+05
    0.810803369141D+04 0.233680725098D+00 0.465661287308D-08 0.000000000000D+00
    0.169890800781D+05 0.235671997070D+01 0.000000000000D+00 0.200000000000D+01
    0.172341572266D+05-0.243058395386D+01 0.000000000000D+00 0.000000000000D+00
21 20  9 14  8 15  0.0-0.152064487338D-03-0.272848410532D-11 0.288300000000D+05
    0.102752421875D+05 0.140360832214D+00 0.279396772385D-08 0.000000000000D+00
   -0.321890283203D+04 0.316793727875D+01 0.186264514923D-08 0.400000000000D+01
    0.231229228516D+05 0.375196456909D+00-0.931322574616D-09 0.000000000000D+00
22 20  9 14  8 15  0.0-0.728257000446D-04-0.181898940355D-11 0.288300000000D+05
    0.588984130859D+04-0.847454071045D-01 0.000000000000D+00 0.000000000000D+00
   -0.195800839844D+05 0.209463691711D+01 0.186264514923D-08-0.300000000000D+01
    0.151765893555D+05 0.273964786529D+01-0.931322574616D-09 0.000000000000D+00
26 20  9 14  8 15  0.0-0.362073071301D-03 0.181898940355D-11 0.288300000000D+05
    0.686949169922D+04 0.286699295044D+00 0.465661287308D-08 0.100000000000D+01
    0.207606860352D+05 0.178627014160D+01 0.000000000000D+00-0.600000000000D+01
    0.131102490234D+05-0.298382759094D+01 0.000000000000D+00 0.000000000000D+00
